OBJECT_NAME,OBJECT_ID,EPOCH,MEAN_MOTION,ECCENTRICITY,INCLINATION,RA_OF_ASC_NODE,ARG_OF_PERICENTER,MEAN_ANOMALY,EPHEMERIS_TYPE,CLASSIFICATION_TYPE,NORAD_CAT_ID,ELEMENT_SET_NO,REV_AT_EPOCH,BSTAR,MEAN_MOTION_DOT,MEAN_MOTION_DDOT
DUCHIFAT-1,2014-033M,2026-06-25T17:10:11.458560,15.66313669,.00015176,98.0450,237.0839,101.6443,258.4986,0,U,40021,999,65708,.13462058E-2,.141113E-2,0
NANOSATC-BR1,2014-033Q,2026-06-26T00:36:38.858400,15.31726656,.00051064,98.0722,210.1973,141.8822,218.2780,0,U,40024,999,65533,.64466712E-3,.19699E-3,0
QB50P1,2014-033R,2026-06-26T05:52:29.445600,15.18390211,.00087417,98.0964,189.0261,183.1826,176.9352,0,U,40025,999,65440,.48339873E-3,.9878E-4,0
DTUSAT-2,2014-033W,2026-06-25T22:56:26.662560,15.15119431,.00075218,98.0864,175.2400,192.4469,167.6577,0,U,40030,999,65401,.42201993E-3,.784E-4,0
QB50P2,2014-033Y,2026-06-26T05:07:23.509920,15.15268593,.00087825,98.0752,174.6559,136.5428,223.6497,0,U,40032,999,65403,.45049962E-3,.8412E-4,0
PERSEUS-M1,2014-033AF,2026-06-25T19:12:28.861056,14.95660103,.00098021,97.9648,121.0735,268.9220,91.0877,0,U,40039,999,65192,.18354721E-3,.1981E-4,0
POLYITAN-1,2014-033AJ,2026-06-25T14:25:19.998624,15.33535945,.00088721,98.0941,203.6586,118.2869,241.9268,0,U,40042,999,65488,.73318562E-3,.23755E-3,0
TIGRISAT,2014-033AK,2026-06-26T03:27:10.382688,14.85192644,.00501658,97.7841,326.9507,46.5050,314.0319,0,U,40043,999,64695,.21434941E-3,.1823E-4,0
CANX-4,2014-034C,2026-06-25T14:17:46.062528,14.81278652,.00125158,98.3112,52.2170,350.4550,9.6421,0,U,40055,999,64577,.1213303E-3,.89E-5,0
CANX-5,2014-034D,2026-06-26T03:13:32.157408,14.81296747,.00124743,98.3114,52.8196,348.9380,11.1555,0,U,40056,999,63666,.11795248E-3,.864E-5,0
GONETS-M 10,2014-036C,2026-06-26T07:51:09.236736,12.42946100,.00228923,82.5114,301.9970,121.4596,238.8725,0,U,40063,999,54338,.1557673E-3,.32E-6,0
METEOR-M 2,2014-037A,2026-06-26T05:25:18.612768,14.21463782,.00063586,98.5113,152.6441,21.7350,338.4097,0,U,40069,999,62060,.824295E-4,.138E-5,0
DX1,2014-037C,2026-06-26T05:25:17.031648,14.90008905,.00058368,98.3862,139.4760,239.3061,120.7580,0,U,40071,999,64745,.17476881E-3,.1623E-4,0
UKUBE-1,2014-037F,2026-06-26T06:59:15.120672,15.13686716,.00030132,98.4237,181.5200,118.3387,241.8146,0,U,40074,999,64993,.54071738E-3,.966E-4,0
GAOFEN-2,2014-049A,2026-06-26T07:09:03.765600,14.80908142,.00067214,98.0109,241.4966,193.1658,166.9379,0,U,40118,999,64058,.90090746E-4,.643E-5,0
BRITE-PL2 (HEWELIUSZ),2014-049B,2026-06-26T06:39:22.462848,14.94626891,.00153972,97.9106,289.3476,80.7286,279.5675,0,U,40119,999,64280,.17279012E-3,.1816E-4,0
CBERS 4,2014-079A,2026-06-26T07:22:53.528736,14.35510891,.00015592,98.3531,233.8531,55.0460,305.0872,0,U,40336,999,60526,.9265585E-5,-.16E-6,0
SMAP,2015-003A,2026-06-26T05:48:54.895392,14.63373950,.0001424,98.1276,184.2085,98.9327,261.2036,0,U,40376,999,60894,.91290573E-4,.425E-5,0
GONETS-M 11,2015-020A,2026-06-26T06:22:26.479200,12.42876329,.00161494,82.4870,25.3338,346.2218,13.8419,0,U,40552,999,50986,-.19123385E+0,-.26408E-3,0
GONETS-M 12,2015-020B,2026-06-26T05:44:07.484064,12.42891347,.00149208,82.4905,26.4770,331.0747,28.9504,0,U,40553,999,50985,.27097251E-3,.47E-6,0
GONETS-M 13,2015-020C,2026-06-26T07:02:04.434432,12.42871087,.00132421,82.4866,25.0557,315.7603,44.2418,0,U,40554,999,50983,.37498247E-3,.62E-6,0
DMC3-FM1,2015-032A,2026-06-26T05:31:10.007616,14.85745773,.00065416,97.6458,42.0500,35.2961,324.8687,0,U,40715,999,59125,.41208721E-4,.307E-5,0
DMC3-FM2,2015-032B,2026-06-26T06:02:52.280736,14.85753649,.00071231,97.6512,43.6510,39.8006,320.3731,0,U,40716,999,59125,.11072749E-3,.911E-5,0
DMC3-FM3,2015-032C,2026-06-26T06:36:33.045408,14.85745122,.00064185,97.6565,45.4325,40.8891,319.2805,0,U,40717,999,59126,.12794005E-3,.106E-4,0
CARBONITE 1 (CBNT-1),2015-032D,2026-06-26T06:54:09.009792,14.83610040,.00128988,97.6512,354.9730,264.9413,95.0329,0,U,40718,999,59069,.13083524E-3,.1029E-4,0
LILACSAT-2,2015-049K,2026-06-26T05:40:57.000576,15.51731803,.00063789,97.4639,214.4230,204.9181,155.1764,0,U,40908,999,59715,.30848462E-3,.18312E-3,0
