DUCHIFAT-1              
1 40021U 14033M   26176.71541040  .00141113  00000+0  13462-2 0  9990
2 40021  98.0450 237.0839 0001517 101.6443 258.4986 15.66313669657084
NANOSATC-BR1            
1 40024U 14033Q   26177.02544975  .00019699  00000+0  64467-3 0  9993
2 40024  98.0722 210.1973 0005106 141.8822 218.2780 15.31726656655333
QB50P1                  
1 40025U 14033R   26177.24478525  .00009878  00000+0  48340-3 0  9995
2 40025  98.0964 189.0261 0008741 183.1826 176.9352 15.18390211654408
DTUSAT-2                
1 40030U 14033W   26176.95586415  .00007840  00000+0  42202-3 0  9994
2 40030  98.0864 175.2400 0007521 192.4469 167.6577 15.15119431654019
QB50P2                  
1 40032U 14033Y   26177.21346655  .00008412  00000+0  45050-3 0  9996
2 40032  98.0752 174.6559 0008782 136.5428 223.6497 15.15268593654039
PERSEUS-M1              
1 40039U 14033AF  26176.80033404  .00001981  00000+0  18355-3 0  9994
2 40039  97.9648 121.0735 0009802 268.9220  91.0877 14.95660103651928
POLYITAN-1              
1 40042U 14033AJ  26176.60092591  .00023755  00000+0  73319-3 0  9992
2 40042  98.0941 203.6586 0008872 118.2869 241.9268 15.33535945654889
TIGRISAT                
1 40043U 14033AK  26177.14387017  .00001823  00000+0  21435-3 0  9997
2 40043  97.7841 326.9507 0050165  46.5050 314.0319 14.85192644646953
CANX-4                  
1 40055U 14034C   26176.59567202  .00000890  00000+0  12133-3 0  9993
2 40055  98.3112  52.2170 0012515 350.4550   9.6421 14.81278652645778
CANX-5                  
1 40056U 14034D   26177.13439997  .00000864  00000+0  11795-3 0  9998
2 40056  98.3114  52.8196 0012474 348.9380  11.1555 14.81296747636661
GONETS-M 10             
1 40063U 14036C   26177.32719024  .00000032  00000+0  15577-3 0  9990
2 40063  82.5114 301.9970 0022892 121.4596 238.8725 12.42946100543383
METEOR-M 2              
1 40069U 14037A   26177.22590987  .00000138  00000+0  82430-4 0  9991
2 40069  98.5113 152.6441 0006358  21.7350 338.4097 14.21463782620607
DX1                     
1 40071U 14037C   26177.22589157  .00001623  00000+0  17477-3 0  9999
2 40071  98.3862 139.4760 0005836 239.3061 120.7580 14.90008905647451
UKUBE-1                 
1 40074U 14037F   26177.29114723  .00009660  00000+0  54072-3 0  9993
2 40074  98.4237 181.5200 0003013 118.3387 241.8146 15.13686716649936
GAOFEN-2                
1 40118U 14049A   26177.29796025  .00000643  00000+0  90091-4 0  9990
2 40118  98.0109 241.4966 0006721 193.1658 166.9379 14.80908142640585
BRITE-PL2 (HEWELIUSZ)   
1 40119U 14049B   26177.27734332  .00001816  00000+0  17279-3 0  9991
2 40119  97.9106 289.3476 0015397  80.7286 279.5675 14.94626891642805
CBERS 4                 
1 40336U 14079A   26177.30756399 -.00000016  00000+0  92656-5 0  9992
2 40336  98.3531 233.8531 0001559  55.0460 305.0872 14.35510891605263
SMAP                    
1 40376U 15003A   26177.24230203  .00000425  00000+0  91291-4 0  9994
2 40376  98.1276 184.2085 0001424  98.9327 261.2036 14.63373950608940
GONETS-M 11             
1 40552U 15020A   26177.26558425 -.00026408  00000+0 -19123+0 0  9990
2 40552  82.4870  25.3338 0016149 346.2218  13.8419 12.42876329509866
GONETS-M 12             
1 40553U 15020B   26177.23897551  .00000047  00000+0  27097-3 0  9996
2 40553  82.4905  26.4770 0014920 331.0747  28.9504 12.42891347509850
GONETS-M 13             
1 40554U 15020C   26177.29310688  .00000062  00000+0  37498-3 0  9997
2 40554  82.4866  25.0557 0013242 315.7603  44.2418 12.42871087509833
DMC3-FM1                
1 40715U 15032A   26177.22997694  .00000307  00000+0  41209-4 0  9998
2 40715  97.6458  42.0500 0006541  35.2961 324.8687 14.85745773591252
DMC3-FM2                
1 40716U 15032B   26177.25199399  .00000911  00000+0  11073-3 0  9994
2 40716  97.6512  43.6510 0007123  39.8006 320.3731 14.85753649591251
DMC3-FM3                
1 40717U 15032C   26177.27538247  .00001060  00000+0  12794-3 0  9993
2 40717  97.6565  45.4325 0006418  40.8891 319.2805 14.85745122591261
CARBONITE 1 (CBNT-1)    
1 40718U 15032D   26177.28760428  .00001029  00000+0  13084-3 0  9991
2 40718  97.6512 354.9730 0012898 264.9413  95.0329 14.83610040590694
LILACSAT-2              
1 40908U 15049K   26177.23677084  .00018312  00000+0  30848-3 0  9990
2 40908  97.4639 214.4230 0006378 204.9181 155.1764 15.51731803597156
